NORAD_CAT_ID,OBJECT_NAME,OBJECT_TYPE,EPOCH,MEAN_MOTION,ECCENTRICITY,INCLINATION,RA_OF_ASC_NODE,ARG_OF_PERICENTER,MEAN_ANOMALY,BSTAR,MEAN_MOTION_DOT,MEAN_MOTION_DDOT,TLE_LINE0,TLE_LINE1,TLE_LINE2,SEMIMAJOR_AXIS,PERIOD,APOGEE,PERIGEE,DECAYED
52290.0,STARLINK-3772,PAYLOAD,2022-11-16 11:24:45,15.08834778,0.0002066,53.2175,127.4936,49.3989,310.7182,1.3212e-06,-2.67e-06,0.0,0 STARLINK-3772,1 52290U 22041AF  22320.47552996 -.00000267  00000-0  13212-5 0  9993,2 52290  53.2175 127.4936 0002066  49.3989 310.7182 15.08834778 31952,6917.896,95.438,541.191,538.332,0.0
52290.0,STARLINK-3772,PAYLOAD,2022-11-16 17:46:18,15.0883829,0.0002057,53.2175,126.304,49.5485,310.5686,3.0319e-05,1.94e-06,0.0,0 STARLINK-3772,1 52290U 22041AF  22320.74048719  .00000194  00000-0  30319-4 0  9990,2 52290  53.2175 126.3040 0002057  49.5485 310.5686 15.08838290 33209,6917.886,95.438,541.174,538.328,0.0
52290.0,STARLINK-3772,PAYLOAD,2022-11-16 19:21:41,15.0883783,0.0002027,53.2176,126.0066,49.0405,311.0762,1.6637e-05,-2.3e-07,0.0,0 STARLINK-3772,1 52290U 22041AF  22320.80672791 -.00000023  00000-0  16637-4 0  9999,2 52290  53.2176 126.0066 0002027  49.0405 311.0762 15.08837830 32006,6917.887,95.438,541.154,538.35,0.0
52290.0,STARLINK-3772,PAYLOAD,2022-11-17 12:50:56,15.08835912,0.0001967,53.2173,122.7349,47.5228,312.593,-8.9101e-05,-1.706e-05,0.0,0 STARLINK-3772,1 52290U 22041AF  22321.53537423 -.00001706  00000-0 -89101-4 0  9998,2 52290  53.2173 122.7349 0001967  47.5228 312.5930 15.08835912 32112,6917.893,95.438,541.119,538.3969999999998,0.0
52290.0,STARLINK-3772,PAYLOAD,2022-11-17 14:26:20,15.08804491,0.0001727,53.2174,122.4377,48.1701,311.9439,0.00030383,4.546e-05,0.0,0 STARLINK-3772,1 52290U 22041AF  22321.60162299  .00004546  00000-0  30383-3 0  9991,2 52290  53.2174 122.4377 0001727  48.1701 311.9439 15.08804491 32124,6917.989000000001,95.44,541.049,538.659,0.0
52290.0,STARLINK-3772,PAYLOAD,2022-11-18 11:06:21,15.08827799,0.0001957,53.2178,118.5732,44.3786,315.7363,-1.9373e-05,-5.96e-06,0.0,0 STARLINK-3772,1 52290U 22041AF  22322.46274473 -.00000596  00000-0 -19373-4 0  9994,2 52290  53.2178 118.5732 0001957  44.3786 315.7363 15.08827799 33467,6917.918000000002,95.438,541.137,538.429,0.0
52290.0,STARLINK-3772,PAYLOAD,2022-11-18 17:27:53,15.08830998,0.000197,53.2178,117.3838,46.19300000000001,313.9225,7.4357000000000015e-06,-1.7e-06,0.0,0 STARLINK-3772,1 52290U 22041AF  22322.72770396 -.00000170  00000-0  74357-5 0  9999,2 52290  53.2178 117.3838 0001970  46.1930 313.9225 15.08830998 32299,6917.908,95.438,541.136,538.41,0.0
52290.0,STARLINK-3772,PAYLOAD,2022-11-19 09:21:44,15.08834169,0.000199,53.2175,114.4096,44.4971,315.618,0.0001169,1.573e-05,0.0,0 STARLINK-3772,1 52290U 22041AF  22323.39010141  .00001573  00000-0  11690-3 0  9994,2 52290  53.2175 114.4096 0001990  44.4971 315.6180 15.08834169 33607,6917.898,95.438,541.14,538.387,0.0
52290.0,STARLINK-3772,PAYLOAD,2022-11-19 20:29:26,15.0884618,0.0001908,53.2179,112.3281,45.5092,314.6056,4.619100000000001e-05,4.47e-06,0.0,0 STARLINK-3772,1 52290U 22041AF  22323.85377560  .00000447  00000-0  46191-4 0  9990,2 52290  53.2179 112.3281 0001908  45.5092 314.6056 15.08846180 32469,6917.861,95.437,541.0459999999998,538.4069999999998,0.0
52290.0,STARLINK-3772,PAYLOAD,2022-11-20 02:50:58,15.08841999,0.0002027,53.2184,111.1398,47.7226,312.3938,0.00013897,1.924e-05,0.0,0 STARLINK-3772,1 52290U 22041AF  22324.11873629  .00001924  00000-0  13897-3 0  9994,2 52290  53.2184 111.1398 0002027  47.7226 312.3938 15.08841999 33713,6917.874,95.437,541.1419999999998,538.337,0.0
52290.0,STARLINK-3772,PAYLOAD,2022-11-20 09:12:31,15.08847606,0.0002002,53.2181,109.9492,47.5541,312.5621,0.00013738,1.899e-05,0.0,0 STARLINK-3772,1 52290U 22041AF  22324.38369317  .00001899  00000-0  13738-3 0  9992,2 52290  53.2181 109.9492 0002002  47.5541 312.5621 15.08847606 32543,6917.857,95.437,541.107,538.337,0.0
52290.0,STARLINK-3772,PAYLOAD,2022-11-20 20:20:13,15.0883918,0.0001871,53.2184,107.8668,45.3889,314.7256,4.0755e-05,3.61e-06,0.0,0 STARLINK-3772,1 52290U 22041AF  22324.84738041  .00000361  00000-0  40755-4 0  9990,2 52290  53.2184 107.8668 0001871  45.3889 314.7256 15.08839180 32616,6917.8830000000025,95.438,541.0419999999998,538.4540000000002,0.0
52290.0,STARLINK-3772,PAYLOAD,2022-11-21 10:38:41,15.08844009,0.0002077,53.2188,105.1914,41.7161,318.399,6.599e-05,7.62e-06,0.0,0 STARLINK-3772,1 52290U 22041AF  22325.44353638  .00000762  00000-0  65990-4 0  9995,2 52290  53.2188 105.1914 0002077  41.7161 318.3990 15.08844009 32708,6917.868,95.437,541.17,538.2959999999998,0.0
52290.0,STARLINK-3772,PAYLOAD,2022-11-21 17:00:13,15.08852548,0.0002144,53.2185,104.0024,44.2037,315.9126,5.960300000000001e-05,6.61e-06,0.0,0 STARLINK-3772,1 52290U 22041AF  22325.70848957  .00000661  00000-0  59603-4 0  9999,2 52290  53.2185 104.0024 0002144  44.2037 315.9126 15.08852548 33959,6917.842,95.437,541.19,538.224,0.0
52290.0,STARLINK-3772,PAYLOAD,2022-11-21 18:35:36,15.08853132,0.0002129,53.2185,103.705,44.0173,316.0988,6.1924e-05,6.98e-06,0.0,0 STARLINK-3772,1 52290U 22041AF  22325.77472862  .00000698  00000-0  61924-4 0  9993,2 52290  53.2185 103.7050 0002129  44.0173 316.0988 15.08853132 32751,6917.84,95.437,541.178,538.232,0.0
52290.0,STARLINK-3772,PAYLOAD,2022-11-22 08:54:05,15.08844639,0.0002155,53.2183,101.0301,40.9767,319.1387,2.4277e-05,9.8e-07,0.0,0 STARLINK-3772,1 52290U 22041AF  22326.37089205  .00000098  00000-0  24277-4 0  9999,2 52290  53.2183 101.0301 0002155  40.9767 319.1387 15.08844639 34056,6917.866,95.437,541.222,538.24,0.0
52290.0,STARLINK-3772,PAYLOAD,2022-11-22 15:15:37,15.08859871,0.0002249,53.2181,99.8393,45.39100000000001,314.7265,-0.00020893,-3.614e-05,0.0,0 STARLINK-3772,1 52290U 22041AF  22326.63584644 -.00003614  00000-0 -20893-3 0  9993,2 52290  53.2181  99.8393 0002249  45.3910 314.7265 15.08859871 34096,6917.82,95.436,541.24,538.129,0.0
52290.0,STARLINK-3772,PAYLOAD,2022-11-23 08:44:52,15.08841433,0.0002659,53.2191,96.5718,40.2507,319.8681,-2.6113e-06,-3.3e-06,0.0,0 STARLINK-3772,1 52290U 22041AF  22327.36449356 -.00000330  00000-0 -26113-5 0  9999,2 52290  53.2191  96.5718 0002659  40.2507 319.8681 15.08841433 34209,6917.876,95.437,541.58,537.9019999999998,0.0
52290.0,STARLINK-3772,PAYLOAD,2022-11-23 15:06:24,15.088437,0.000232,53.2187,95.3808,44.3854,315.7324,-3.1426e-06,-3.38e-06,0.0,0 STARLINK-3772,1 52290U 22041AF  22327.62945072 -.00000338  00000-0 -31426-5 0  9995,2 52290  53.2187  95.3808 0002320  44.3854 315.7324 15.08843700 33034,6917.869000000002,95.437,541.339,538.129,0.0
52290.0,STARLINK-3772,PAYLOAD,2022-11-24 08:35:38,15.08842247,0.0002353,53.2185,92.1106,41.8571,318.26,4.5421e-05,4.35e-06,0.0,0 STARLINK-3772,1 52290U 22041AF  22328.35808832  .00000435  00000-0  45421-4 0  9993,2 52290  53.2185  92.1106 0002353  41.8571 318.2600 15.08842247 33144,6917.874,95.437,541.366,538.111,0.0
52290.0,STARLINK-3772,PAYLOAD,2022-11-24 13:21:50,15.08730414,0.0002647,53.2196,91.2164,53.1511,306.9723,0.001396,0.00021933,0.0,0 STARLINK-3772,1 52290U 22041AF  22328.55683368  .00021933  00000-0  13960-2 0  9997,2 52290  53.2196  91.2164 0002647  53.1511 306.9723 15.08730414 34385,6918.215,95.444,541.9119999999998,538.249,0.0
52290.0,STARLINK-3772,PAYLOAD,2022-11-25 08:26:26,15.08838391,0.0001754,53.2187,87.6462,49.2338,310.8806,2.7955e-05,1.57e-06,0.0,0 STARLINK-3772,1 52290U 22041AF  22329.35168998  .00000157  00000-0  27955-4 0  9999,2 52290  53.2187  87.6462 0001754  49.2338 310.8806 15.08838391 34509,6917.885,95.438,540.964,538.5369999999998,0.0
52290.0,STARLINK-3772,PAYLOAD,2022-11-25 11:37:12,15.08833413,0.00015,53.2192,87.0489,63.5873,296.5273,2.2541e-05,7.1e-07,0.0,0 STARLINK-3772,1 52290U 22041AF  22329.48417306  .00000071  00000-0  22541-4 0  9994,2 52290  53.2192  87.0489 0001500  63.5873 296.5273 15.08833413 33316,6917.901,95.438,540.803,538.7280000000002,0.0
52290.0,STARLINK-3772,PAYLOAD,2022-11-25 14:47:58,15.08835341,0.0002039,53.2192,86.4592,40.134,319.9803,-8.0433e-06,-4.16e-06,0.0,0 STARLINK-3772,1 52290U 22041AF  22329.61665501 -.00000416  00000-0 -80433-5 0  9991,2 52290  53.2192  86.4592 0002039  40.1340 319.9803 15.08835341 33335,6917.895,95.438,541.17,538.349,0.0
52290.0,STARLINK-3772,PAYLOAD,2022-11-26 08:17:13,15.08829719,0.0001994,53.2191,83.1885,36.7895,323.3234,1.3838e-05,-6.8e-07,0.0,0 STARLINK-3772,1 52290U 22041AF  22330.34530010 -.00000068  00000-0  13838-4 0  9995,2 52290  53.2191  83.1885 0001994  36.7895 323.3234 15.08829719 34653,6917.9119999999975,95.438,541.156,538.3969999999998,0.0
52290.0,STARLINK-3772,PAYLOAD,2022-11-26 11:28:00,15.08820328,0.0001811,53.2181,82.5916,31.8287,328.2815,6.8111e-05,7.96e-06,0.0,0 STARLINK-3772,1 52290U 22041AF  22330.47778473  .00000796  00000-0  68111-4 0  9997,2 52290  53.2181  82.5916 0001811  31.8287 328.2815 15.08820328 33463,6917.941,95.439,541.058,538.553,0.0
52290.0,STARLINK-3772,PAYLOAD,2022-11-26 17:49:33,15.088306,0.0002058,53.2183,81.4033,31.1695,328.9419,-4.8841e-05,-1.065e-05,0.0,0 STARLINK-3772,1 52290U 22041AF  22330.74274415 -.00001065  00000-0 -48841-4 0  9994,2 52290  53.2183  81.4033 0002058  31.1695 328.9419 15.08830600 33509,6917.909000000002,95.438,541.198,538.35,0.0
52290.0,STARLINK-3772,PAYLOAD,2022-11-27 08:08:00,15.08835871,0.0002072,53.2184,78.7271,32.2746,327.8372,0.00010399,1.367e-05,0.0,0 STARLINK-3772,1 52290U 22041AF  22331.33889781  .00001367  00000-0  10399-3 0  9997,2 52290  53.2184  78.7271 0002072  32.2746 327.8372 15.08835871 34803,6917.893,95.438,541.191,538.325,0.0
52290.0,STARLINK-3772,PAYLOAD,2022-11-27 16:04:56,15.08835351,0.0002095,53.2185,77.2403,32.4574,327.6546,9.0005e-05,1.144e-05,0.0,0 STARLINK-3772,1 52290U 22041AF  22331.67009929  .00001144  00000-0  90005-4 0  9998,2 52290  53.2185  77.2403 0002095  32.4574 327.6546 15.08835351 33646,6917.895,95.438,541.2090000000002,538.31,0.0
